[{"OBJECT_NAME":"SVYATOBOR 1 (RS60S)","OBJECT_ID":"2023-091X","EPOCH":"2026-03-09T23:06:11.081664","MEAN_MOTION":15.2482043,"ECCENTRICITY":0.00111996,"INCLINATION":97.5206,"RA_OF_ASC_NODE":132.3062,"ARG_OF_PERICENTER":84.4206,"MEAN_ANOMALY":275.8308,"EPHEMERIS_TYPE":0,"CLASSIFICATION_TYPE":"U","NORAD_CAT_ID":57187,"ELEMENT_SET_NO":999,"REV_AT_EPOCH":14918,"BSTAR":0.00046454276,"MEAN_MOTION_DOT":0.00011484,"MEAN_MOTION_DDOT":0},{"OBJECT_NAME":"STARLINK-30247","OBJECT_ID":"2023-122N","EPOCH":"2026-03-09T22:00:01.999584","MEAN_MOTION":15.26731362,"ECCENTRICITY":0.00012338,"INCLINATION":43.0007,"RA_OF_ASC_NODE":90.9641,"ARG_OF_PERICENTER":247.6181,"MEAN_ANOMALY":149.8331,"EPHEMERIS_TYPE":0,"CLASSIFICATION_TYPE":"U","NORAD_CAT_ID":57644,"ELEMENT_SET_NO":999,"REV_AT_EPOCH":573,"BSTAR":0.0014314563,"MEAN_MOTION_DOT":0.00038327,"MEAN_MOTION_DDOT":0}]
